{
  "links": {
    "self": "http://api.nasa.gov/neo/rest/v1/neo/54542743?api_key=3hMFcVGG3bILl6a9mBxBdjkWU71phGNDfEmA4fl4"
  },
  "id": "54542743",
  "neo_reference_id": "54542743",
  "name": "(2025 QK10)",
  "designation": "2025 QK10",
  "nasa_jpl_url": "https://ssd.jpl.nasa.gov/tools/sbdb_lookup.html#/?sstr=54542743",
  "absolute_magnitude_h": 24.12,
  "estimated_diameter": {
    "kilometers": {
      "estimated_diameter_min": 0.0398616229,
      "estimated_diameter_max": 0.0891332986
    },
    "meters": {
      "estimated_diameter_min": 39.8616229277,
      "estimated_diameter_max": 89.1332985597
    },
    "miles": {
      "estimated_diameter_min": 0.0247688565,
      "estimated_diameter_max": 0.0553848469
    },
    "feet": {
      "estimated_diameter_min": 130.779606966,
      "estimated_diameter_max": 292.4320912466
    }
  },
  "is_potentially_hazardous_asteroid": false,
  "close_approach_data": [
    {
      "close_approach_date": "2025-10-03",
      "close_approach_date_full": "2025-Oct-03 16:11",
      "epoch_date_close_approach": 1759507860000,
      "relative_velocity": {
        "kilometers_per_second": "11.8906355112",
        "kilometers_per_hour": "42806.2878403661",
        "miles_per_hour": "26598.1625750319"
      },
      "miss_distance": {
        "astronomical": "0.084040531",
        "lunar": "32.691766559",
        "kilometers": "12572284.43126897",
        "miles": "7812055.295772986"
      },
      "orbiting_body": "Earth"
    }
  ],
  "orbital_data": {
    "orbit_id": "4",
    "orbit_determination_date": "2025-09-14 06:20:33",
    "first_observation_date": "2025-08-27",
    "last_observation_date": "2025-09-13",
    "data_arc_in_days": 17,
    "observations_used": 23,
    "orbit_uncertainty": "8",
    "minimum_orbit_intersection": ".0317006",
    "jupiter_tisserand_invariant": "3.425",
    "epoch_osculation": "2460915.5",
    "eccentricity": ".6195205030151818",
    "semi_major_axis": "2.154235670611341",
    "inclination": "2.436530339159751",
    "ascending_node_longitude": "243.951733632353",
    "orbital_period": "1154.883684924488",
    "perihelion_distance": ".8196425043409554",
    "perihelion_argument": "173.8287799740955",
    "aphelion_distance": "3.488828836881726",
    "perihelion_time": "2460985.772668434595",
    "mean_anomaly": "338.0946246217788",
    "mean_motion": ".3117197036371145",
    "equinox": "J2000",
    "orbit_class": {
      "orbit_class_type": "APO",
      "orbit_class_description": "Near-Earth asteroid orbits which cross the Earth\u2019s orbit similar to that of 1862 Apollo",
      "orbit_class_range": "a (semi-major axis) > 1.0 AU; q (perihelion) < 1.017 AU"
    }
  },
  "is_sentry_object": false
}